{
  "type": "FeatureCollection",
  "features": [
    {
      "type": "Feature",
      "properties": {
        "norad_id": 66816,
        "name": "STARLINK-36098",
        "group": "last-30-days",
        "lat": 26.071943974191207,
        "lon": 36.75444291217125,
        "alt_km": 309.0025013194754,
        "timestamp": "2025-12-13T07:35:40.338144+00:00",
        "meta_object_name": "STARLINK-36098",
        "meta_object_id": "2025-278AB",
        "meta_epoch": "2025-12-12T23:27:17.344512",
        "meta_mean_motion": 15.87282263,
        "meta_eccentricity": 0.0003862,
        "meta_inclination": 42.9976,
        "meta_ra_of_asc_node": 250.5255,
        "meta_arg_of_pericenter": 238.88,
        "meta_mean_anomaly": 121.1695,
        "meta_ephemeris_type": 0,
        "meta_classification_type": "U",
        "meta_norad_cat_id": 66816,
        "meta_element_set_no": 999,
        "meta_rev_at_epoch": 187,
        "meta_bstar": -0.0055424219,
        "meta_mean_motion_dot": -0.01325931,
        "meta_mean_motion_ddot": 0,
        "tle_line1": "1 66816U 25278AB  25346.97728408 -.01325931  00000+0 -55424-2 0  9993",
        "tle_line2": "2 66816  42.9976 250.5255 0003862 238.8800 121.1695 15.87282263  1873"
      },
      "geometry": {
        "type": "Point",
        "coordinates": [
          36.75444291217125,
          26.071943974191207
        ]
      }
    },
    {
      "type": "Feature",
      "properties": {
        "norad_id": 66817,
        "name": "STARLINK-35995",
        "group": "last-30-days",
        "lat": 23.453676150093575,
        "lon": 40.668292508036565,
        "alt_km": 311.6646904104973,
        "timestamp": "2025-12-13T07:35:40.338155+00:00",
        "meta_object_name": "STARLINK-35995",
        "meta_object_id": "2025-278AC",
        "meta_epoch": "2025-12-12T18:54:11.570688",
        "meta_mean_motion": 15.87607607,
        "meta_eccentricity": 0.00037809,
        "meta_inclination": 42.9971,
        "meta_ra_of_asc_node": 251.6843,
        "meta_arg_of_pericenter": 253.1656,
        "meta_mean_anomaly": 106.8803,
        "meta_ephemeris_type": 0,
        "meta_classification_type": "U",
        "meta_norad_cat_id": 66817,
        "meta_element_set_no": 999,
        "meta_rev_at_epoch": 184,
        "meta_bstar": -0.0068875873,
        "meta_mean_motion_dot": -0.01659981,
        "meta_mean_motion_ddot": 0,
        "tle_line1": "1 66817U 25278AC  25346.78763392 -.01659981  00000+0 -68876-2 0  9994",
        "tle_line2": "2 66817  42.9971 251.6843 0003780 253.1656 106.8803 15.87607607  1843"
      },
      "geometry": {
        "type": "Point",
        "coordinates": [
          40.668292508036565,
          23.453676150093575
        ]
      }
    },
    {
      "type": "Feature",
      "properties": {
        "norad_id": 66818,
        "name": "STARLINK-35994",
        "group": "last-30-days",
        "lat": 20.326150855941155,
        "lon": 44.980994764371,
        "alt_km": 297.1163714935192,
        "timestamp": "2025-12-13T07:35:40.338164+00:00",
        "meta_object_name": "STARLINK-35994",
        "meta_object_id": "2025-278AD",
        "meta_epoch": "2025-12-12T18:54:42.475968",
        "meta_mean_motion": 15.89830166,
        "meta_eccentricity": 0.00026457,
        "meta_inclination": 42.9969,
        "meta_ra_of_asc_node": 251.6879,
        "meta_arg_of_pericenter": 254.3439,
        "meta_mean_anomaly": 105.7144,
        "meta_ephemeris_type": 0,
        "meta_classification_type": "U",
        "meta_norad_cat_id": 66818,
        "meta_element_set_no": 999,
        "meta_rev_at_epoch": 184,
        "meta_bstar": 0.0031710894,
        "meta_mean_motion_dot": 0.01107431,
        "meta_mean_motion_ddot": 0,
        "tle_line1": "1 66818U 25278AD  25346.78799162  .01107431  00000+0  31711-2 0  9993",
        "tle_line2": "2 66818  42.9969 251.6879 0002645 254.3439 105.7144 15.89830166  1847"
      },
      "geometry": {
        "type": "Point",
        "coordinates": [
          44.980994764371,
          20.326150855941155
        ]
      }
    },
    {
      "type": "Feature",
      "properties": {
        "norad_id": 66819,
        "name": "STARLINK-35989",
        "group": "last-30-days",
        "lat": 21.025049415748004,
        "lon": 44.048364042755864,
        "alt_km": 316.65788987887026,
        "timestamp": "2025-12-13T07:35:40.338173+00:00",
        "meta_object_name": "STARLINK-35989",
        "meta_object_id": "2025-278AE",
        "meta_epoch": "2025-12-12T18:53:27.854016",
        "meta_mean_motion": 15.88759377,
        "meta_eccentricity": 0.00091311,
        "meta_inclination": 42.9978,
        "meta_ra_of_asc_node": 251.6809,
        "meta_arg_of_pericenter": 2.6141,
        "meta_mean_anomaly": 357.478,
        "meta_ephemeris_type": 0,
        "meta_classification_type": "U",
        "meta_norad_cat_id": 66819,
        "meta_element_set_no": 999,
        "meta_rev_at_epoch": 184,
        "meta_bstar": -0.011290707,
        "meta_mean_motion_dot": -0.0280559,
        "meta_mean_motion_ddot": 0,
        "tle_line1": "1 66819U 25278AE  25346.78712794 -.02805590  00000+0 -11291-1 0  9994",
        "tle_line2": "2 66819  42.9978 251.6809 0009131   2.6141 357.4780 15.88759377  1847"
      },
      "geometry": {
        "type": "Point",
        "coordinates": [
          44.048364042755864,
          21.025049415748004
        ]
      }
    },
    {
      "type": "Feature",
      "properties": {
        "norad_id": 66820,
        "name": "KOMPSAT-7",
        "group": "last-30-days",
        "lat": -35.14303216303321,
        "lon": 107.74900219817994,
        "alt_km": 570.4358414560402,
        "timestamp": "2025-12-13T07:35:40.338185+00:00",
        "meta_object_name": "KOMPSAT-7",
        "meta_object_id": "2025-279A",
        "meta_epoch": "2025-12-13T00:13:39.562752",
        "meta_mean_motion": 14.98953982,
        "meta_eccentricity": 0.00087134,
        "meta_inclination": 97.641,
        "meta_ra_of_asc_node": 292.8708,
        "meta_arg_of_pericenter": 224.4058,
        "meta_mean_anomaly": 135.6467,
        "meta_ephemeris_type": 0,
        "meta_classification_type": "U",
        "meta_norad_cat_id": 66820,
        "meta_element_set_no": 999,
        "meta_rev_at_epoch": 169,
        "meta_bstar": 0.00036339747,
        "meta_mean_motion_dot": 4.343e-05,
        "meta_mean_motion_ddot": 0,
        "tle_line1": "1 66820U 25279A   25347.00948568  .00004343  00000+0  36340-3 0  9990",
        "tle_line2": "2 66820  97.6410 292.8708 0008713 224.4058 135.6467 14.98953982  1697"
      },
      "geometry": {
        "type": "Point",
        "coordinates": [
          107.74900219817994,
          -35.14303216303321
        ]
      }
    },
    {
      "type": "Feature",
      "properties": {
        "norad_id": 66821,
        "name": "STARLINK-35966",
        "group": "last-30-days",
        "lat": 38.9024470468419,
        "lon": -145.70283233953452,
        "alt_km": 334.0583235444674,
        "timestamp": "2025-12-13T07:35:40.338195+00:00",
        "meta_object_name": "STARLINK-35966",
        "meta_object_id": "2025-280A",
        "meta_epoch": "2025-12-12T20:00:01.999872",
        "meta_mean_motion": 15.79767855,
        "meta_eccentricity": 0.0003666,
        "meta_inclination": 69.9935,
        "meta_ra_of_asc_node": 198.5736,
        "meta_arg_of_pericenter": 276.1119,
        "meta_mean_anomaly": 260.9083,
        "meta_ephemeris_type": 0,
        "meta_classification_type": "U",
        "meta_norad_cat_id": 66821,
        "meta_element_set_no": 999,
        "meta_rev_at_epoch": 291,
        "meta_bstar": -0.01035773,
        "meta_mean_motion_dot": -0.01660119,
        "meta_mean_motion_ddot": 0,
        "tle_line1": "1 66821U 25280A   25346.83335648 -.01660119  00000+0 -10358-1 0  9993",
        "tle_line2": "2 66821  69.9935 198.5736 0003666 276.1119 260.9083 15.79767855  2913"
      },
      "geometry": {
        "type": "Point",
        "coordinates": [
          -145.70283233953452,
          38.9024470468419
        ]
      }
    },
    {
      "type": "Feature",
      "properties": {
        "norad_id": 66822,
        "name": "STARLINK-35958",
        "group": "last-30-days",
        "lat": 40.63471384095297,
        "lon": -144.58348745950192,
        "alt_km": 333.9723610199726,
        "timestamp": "2025-12-13T07:35:40.338204+00:00",
        "meta_object_name": "STARLINK-35958",
        "meta_object_id": "2025-280B",
        "meta_epoch": "2025-12-12T20:00:01.999872",
        "meta_mean_motion": 15.79773079,
        "meta_eccentricity": 0.00037893,
        "meta_inclination": 69.9936,
        "meta_ra_of_asc_node": 198.5716,
        "meta_arg_of_pericenter": 272.6236,
        "meta_mean_anomaly": 266.3079,
        "meta_ephemeris_type": 0,
        "meta_classification_type": "U",
        "meta_norad_cat_id": 66822,
        "meta_element_set_no": 999,
        "meta_rev_at_epoch": 291,
        "meta_bstar": -0.010265968,
        "meta_mean_motion_dot": -0.01647838,
        "meta_mean_motion_ddot": 0,
        "tle_line1": "1 66822U 25280B   25346.83335648 -.01647838  00000+0 -10266-1 0  9995",
        "tle_line2": "2 66822  69.9936 198.5716 0003789 272.6236 266.3079 15.79773079  2910"
      },
      "geometry": {
        "type": "Point",
        "coordinates": [
          -144.58348745950192,
          40.63471384095297
        ]
      }
    }
  ]
}